[{"OBJECT_NAME":"TOMORROW-S4","OBJECT_ID":"2024-247K","EPOCH":"2026-03-09T12:47:35.836224","MEAN_MOTION":15.27717249,"ECCENTRICITY":0.00044343,"INCLINATION":44.9818,"RA_OF_ASC_NODE":117.9996,"ARG_OF_PERICENTER":210.4078,"MEAN_ANOMALY":149.6548,"EPHEMERIS_TYPE":0,"CLASSIFICATION_TYPE":"U","NORAD_CAT_ID":62386,"ELEMENT_SET_NO":999,"REV_AT_EPOCH":6770,"BSTAR":0.00046927249,"MEAN_MOTION_DOT":0.00012677,"MEAN_MOTION_DDOT":0},{"OBJECT_NAME":"STARLINK-36097","OBJECT_ID":"2025-298S","EPOCH":"2026-03-09T21:42:20.478816","MEAN_MOTION":15.26086669,"ECCENTRICITY":0.00039178,"INCLINATION":70.003,"RA_OF_ASC_NODE":12.9557,"ARG_OF_PERICENTER":200.4809,"MEAN_ANOMALY":159.6208,"EPHEMERIS_TYPE":0,"CLASSIFICATION_TYPE":"U","NORAD_CAT_ID":67091,"ELEMENT_SET_NO":999,"REV_AT_EPOCH":1327,"BSTAR":0.0027728212,"MEAN_MOTION_DOT":0.00072258,"MEAN_MOTION_DDOT":0}]
